NORAD_CAT_ID,OBJECT_NAME,OBJECT_TYPE,EPOCH,MEAN_MOTION,ECCENTRICITY,INCLINATION,RA_OF_ASC_NODE,ARG_OF_PERICENTER,MEAN_ANOMALY,BSTAR,MEAN_MOTION_DOT,MEAN_MOTION_DDOT,TLE_LINE0,TLE_LINE1,TLE_LINE2,SEMIMAJOR_AXIS,PERIOD,APOGEE,PERIGEE,DECAYED
49760.0,STARLINK-3199,PAYLOAD,2022-05-22 22:00:01,15.08864172,0.0001968,53.2189,244.5718,35.8893,56.8225,-0.0039939,-0.00063336,0.0,0 STARLINK-3199,1 49760U 21115AN  22142.91668981 -.00063336  00000-0 -39939-2 0  9993,2 49760  53.2189 244.5718 0001968  35.8893  56.8225 15.08864172  1301,6917.807,95.436,541.033,538.31,0.0
49760.0,STARLINK-3199,PAYLOAD,2022-05-23 06:00:00,15.0881356,0.0001845,53.2193,243.0744,42.4884,61.7506,0.0032296,0.00051449,0.0,0 STARLINK-3199,1 49760U 21115AN  22143.25001157  .00051449  00000-0  32296-2 0  9996,2 49760  53.2193 243.0744 0001845  42.4884  61.7506 15.08813560 27486,6917.9609999999975,95.439,541.1030000000002,538.55,0.0
49760.0,STARLINK-3199,PAYLOAD,2022-05-23 14:00:01,15.08846127,0.0002023,53.2192,241.58,38.1616,77.6523,-0.0011883,-0.00019154,0.0,0 STARLINK-3199,1 49760U 21115AN  22143.58334491 -.00019154  00000-0 -11883-2 0  9990,2 49760  53.2192 241.5800 0002023  38.1616  77.6523 15.08846127  1308,6917.861999999999,95.437,541.126,538.327,0.0
49760.0,STARLINK-3199,PAYLOAD,2022-05-23 22:00:01,15.08862631,0.0001962,53.219,240.0828,37.7253,89.7499,-0.0053003999999999,-0.00083718,0.0,0 STARLINK-3199,1 49760U 21115AN  22143.91668981 -.00083718  00000-0 -53004-2 0  9999,2 49760  53.2190 240.0828 0001962  37.7253  89.7499 15.08862631 27585,6917.811,95.436,541.033,538.319,0.0
49760.0,STARLINK-3199,PAYLOAD,2022-05-24 13:20:10,15.08818616,0.0001822,53.222,237.2139,45.1993,314.9147,-8.2545e-05,-1.601e-05,0.0,0 STARLINK-3199,1 49760U 21115AN  22144.55567646 -.00001601  00000-0 -82545-4 0  9991,2 49760  53.2220 237.2139 0001822  45.1993 314.9147 15.08818616 27689,6917.946,95.439,541.071,538.55,0.0
49760.0,STARLINK-3199,PAYLOAD,2022-05-24 22:00:00,15.0884694,0.0001793,53.2177,235.5999,42.2092,119.9392,-0.00097265,-0.00015738,0.0,0 STARLINK-3199,1 49760U 21115AN  22144.91667824 -.00015738  00000-0 -97265-3 0  9990,2 49760  53.2177 235.5999 0001793  42.2092 119.9392 15.08846940 27732,6917.859,95.437,540.965,538.484,0.0
49760.0,STARLINK-3199,PAYLOAD,2022-05-25 14:00:01,15.08809509,0.0002168,53.2191,232.6027,43.4372,141.869,0.0014014,0.00022067,0.0,0 STARLINK-3199,1 49760U 21115AN  22145.58334491  .00022067  00000-0  14014-2 0  9996,2 49760  53.2191 232.6027 0002168  43.4372 141.8690 15.08809509  1309,6917.974,95.439,541.3380000000002,538.339,0.0
49760.0,STARLINK-3199,PAYLOAD,2022-05-25 22:00:00,15.08846387,0.0002072,53.2187,231.1052,44.4919,152.3851,-0.0010485,-0.0001694,0.0,0 STARLINK-3199,1 49760U 21115AN  22145.91667824 -.00016940  00000-0 -10485-2 0  9995,2 49760  53.2187 231.1052 0002072  44.4919 152.3851 15.08846387  1309,6917.861,95.437,541.159,538.2919999999998,0.0
49760.0,STARLINK-3199,PAYLOAD,2022-05-26 05:04:49,15.08822605,0.0002055,53.2198,229.7789,40.5704,319.5441,0.00012699,1.733e-05,0.0,0 STARLINK-3199,1 49760U 21115AN  22146.21167846  .00001733  00000-0  12699-3 0  9990,2 49760  53.2198 229.7789 0002055  40.5704 319.5441 15.08822605 27937,6917.934,95.439,541.22,538.377,0.0
49760.0,STARLINK-3199,PAYLOAD,2022-05-26 06:00:00,15.08846553,0.0002012,53.219,229.6085,49.0999,159.3673,0.0013538,0.00021327,0.0,0 STARLINK-3199,1 49760U 21115AN  22146.25001157  .00021327  00000-0  13538-2 0  9999,2 49760  53.2190 229.6085 0002012  49.0999 159.3673 15.08846553 27935,6917.86,95.437,541.117,538.3330000000002,0.0
49760.0,STARLINK-3199,PAYLOAD,2022-05-26 13:01:44,15.08832555,0.0002034,53.2197,228.2941,44.4256,315.6899,0.00023513,3.455e-05,0.0,0 STARLINK-3199,1 49760U 21115AN  22146.54287162  .00003455  00000-0  23513-3 0  9990,2 49760  53.2197 228.2941 0002034  44.4256 315.6899 15.08832555 27986,6917.903,95.438,541.175,538.361,0.0
49760.0,STARLINK-3199,PAYLOAD,2022-05-26 22:00:00,15.0884862,0.0002023,53.2186,226.6163,42.5267,189.1568,-0.0011685,-0.00018841,0.0,0 STARLINK-3199,1 49760U 21115AN  22146.91667824 -.00018841  00000-0 -11685-2 0  9991,2 49760  53.2186 226.6163 0002023  42.5267 189.1568 15.08848620  1306,6917.854,95.437,541.119,538.32,0.0
49760.0,STARLINK-3199,PAYLOAD,2022-05-27 14:00:01,15.08803081,0.0002129,53.2188,223.6252,39.4201,215.4505,0.0020504,0.00032462,0.0,0 STARLINK-3199,1 49760U 21115AN  22147.58334491  .00032462  00000-0  20504-2 0  9999,2 49760  53.2188 223.6252 0002129  39.4201 215.4505 15.08803081  1300,6917.993,95.44,541.331,538.385,0.0
49760.0,STARLINK-3199,PAYLOAD,2022-05-27 16:00:00,15.08802623,0.0002117,53.2186,223.2511,38.1138,309.652,0.0032887,0.00052388,0.0,0 STARLINK-3199,1 49760U 21115AN  22147.66667824  .00052388  00000-0  32887-2 0  9993,2 49760  53.2186 223.2511 0002117  38.1138 309.6520 15.08802623 28150,6917.995,95.44,541.3240000000002,538.395,0.0
49760.0,STARLINK-3199,PAYLOAD,2022-05-27 22:00:01,15.08842059,0.0002008,53.2187,222.1275,39.8964,226.6075,-0.00084605,-0.00013729,0.0,0 STARLINK-3199,1 49760U 21115AN  22147.91668981 -.00013729  00000-0 -84605-3 0  9990,2 49760  53.2187 222.1275 0002008  39.8964 226.6075 15.08842059  1308,6917.874,95.437,541.128,538.35,0.0
49760.0,STARLINK-3199,PAYLOAD,2022-05-28 04:46:22,15.08839775,0.0002252,53.2194,220.8617,44.8916,315.2258,-1.004e-05,-4.48e-06,0.0,0 STARLINK-3199,1 49760U 21115AN  22148.19887655 -.00000448  00000-0 -10040-4 0  9999,2 49760  53.2194 220.8617 0002252  44.8916 315.2258 15.08839775 28235,6917.880999999999,95.438,541.304,538.188,0.0
49760.0,STARLINK-3199,PAYLOAD,2022-05-28 14:00:01,15.08841218,0.0002202,53.2188,219.1364,38.8948,250.7433,0.0012644,0.00019893,0.0,0 STARLINK-3199,1 49760U 21115AN  22148.58334491  .00019893  00000-0  12644-2 0  9999,2 49760  53.2188 219.1364 0002202  38.8948 250.7433 15.08841218  1303,6917.877,95.437,541.265,538.2180000000002,0.0
49760.0,STARLINK-3199,PAYLOAD,2022-05-28 22:00:00,15.08857616,0.0002047,53.2188,217.6387,38.5793,262.6824,-0.00083875,-0.00013619,0.0,0 STARLINK-3199,1 49760U 21115AN  22148.91667824 -.00013619  00000-0 -83875-3 0  9992,2 49760  53.2188 217.6387 0002047  38.5793 262.6824 15.08857616 28341,6917.8269999999975,95.436,541.1080000000002,538.275,0.0
49760.0,STARLINK-3199,PAYLOAD,2022-05-29 14:00:01,15.08838834,0.0002125,53.219,214.6476,34.6031,289.8649,-0.0022183,-0.00035419,0.0,0 STARLINK-3199,1 49760U 21115AN  22149.58334491 -.00035419  00000-0 -22183-2 0  9993,2 49760  53.2190 214.6476 0002125  34.6031 289.8649 15.08838834  1303,6917.884,95.438,541.219,538.279,0.0
49760.0,STARLINK-3199,PAYLOAD,2022-05-29 22:00:00,15.08808453,0.0001924,53.2189,213.1499,33.1318,302.9204,-0.00060618,-9.914e-05,0.0,0 STARLINK-3199,1 49760U 21115AN  22149.91667824 -.00009914  00000-0 -60618-3 0  9996,2 49760  53.2189 213.1499 0001924  33.1318 302.9204 15.08808453  1306,6917.977,95.44,541.173,538.511,0.0
49760.0,STARLINK-3199,PAYLOAD,2022-05-30 06:00:00,15.08823248,0.0001898,53.2191,211.6536,35.9196,311.6802,-0.00040855,-6.781e-05,0.0,0 STARLINK-3199,1 49760U 21115AN  22150.25001157 -.00006781  00000-0 -40855-3 0  9996,2 49760  53.2191 211.6536 0001898  35.9196 311.6802 15.08823248 28543,6917.932,95.439,541.11,538.484,0.0
49760.0,STARLINK-3199,PAYLOAD,2022-05-30 14:00:01,15.08794297,0.0002115,53.2188,210.159,32.3634,326.8094,0.0027783,0.00044151,0.0,0 STARLINK-3199,1 49760U 21115AN  22150.58334491  .00044151  00000-0  27783-2 0  9997,2 49760  53.2188 210.1590 0002115  32.3634 326.8094 15.08794297  1301,6918.02,95.44,541.3480000000002,538.422,0.0
49760.0,STARLINK-3199,PAYLOAD,2022-05-30 22:00:00,15.08817092,0.0001934,53.2187,208.6612,34.4324,336.302,0.00014131,1.96e-05,0.0,0 STARLINK-3199,1 49760U 21115AN  22150.91667824  .00001960  00000-0  14131-3 0  9998,2 49760  53.2187 208.6612 0001934  34.4324 336.3020 15.08817092  1308,6917.95,95.439,541.153,538.477,0.0
49760.0,STARLINK-3199,PAYLOAD,2022-05-31 06:00:02,15.08839044,0.0001923,53.2188,207.1652,36.2562,346.1016,-0.0011223,-0.00018105,0.0,0 STARLINK-3199,1 49760U 21115AN  22151.25002315 -.00018105  00000-0 -11223-2 0  9993,2 49760  53.2188 207.1652 0001923  36.2562 346.1016 15.08839044 28695,6917.8830000000025,95.438,541.0790000000002,538.418,0.0
49760.0,STARLINK-3199,PAYLOAD,2022-05-31 20:12:36,15.08830465,0.0001998,53.2195,204.5073,38.593,321.5204,-3.1111e-05,-7.83e-06,0.0,0 STARLINK-3199,1 49760U 21115AN  22151.84208970 -.00000783  00000-0 -31111-4 0  9996,2 49760  53.2195 204.5073 0001998  38.5930 321.5204 15.08830465 28781,6917.91,95.438,541.1569999999998,538.3919999999998,0.0
49760.0,STARLINK-3199,PAYLOAD,2022-06-01 20:00:01,15.08852735,0.0002005,53.2176,200.0581,35.4999,311.835,-0.0016525,-0.00026501,0.0,0 STARLINK-3199,1 49760U 21115AN  22152.83334491 -.00026501  00000-0 -16525-2 0  9990,2 49760  53.2176 200.0581 0002005  35.4999 311.8350 15.08852735  1303,6917.840999999999,95.437,541.0930000000002,538.319,0.0
49760.0,STARLINK-3199,PAYLOAD,2022-06-02 19:54:10,15.0884767,0.0002092,53.2195,195.5866,38.4398,321.6743,0.00020643,2.999e-05,0.0,0 STARLINK-3199,1 49760U 21115AN  22153.82928597  .00002999  00000-0  20643-3 0  9996,2 49760  53.2195 195.5866 0002092  38.4398 321.6743 15.08847670 29082,6917.857,95.437,541.169,538.275,0.0
49760.0,STARLINK-3199,PAYLOAD,2022-06-03 10:12:38,15.08854168,0.000211,53.2195,192.9105,39.8402,320.2745,0.00018546,2.666e-05,0.0,0 STARLINK-3199,1 49760U 21115AN  22154.42544007  .00002666  00000-0  18546-3 0  9993,2 49760  53.2195 192.9105 0002110  39.8402 320.2745 15.08854168 28065,6917.837,95.437,541.1619999999998,538.242,0.0
49760.0,STARLINK-3199,PAYLOAD,2022-06-04 10:03:25,15.08849193,0.0002032,53.2193,188.45,39.8992,320.215,4.965e-05,5.02e-06,0.0,0 STARLINK-3199,1 49760U 21115AN  22155.41903953  .00000502  00000-0  49650-4 0  9990,2 49760  53.2193 188.4500 0002032  39.8992 320.2150 15.08849193 29321,6917.852,95.437,541.123,538.312,0.0
